[Satellite]
VERSION=1.1
NAME=TRMM
NICKNAME=TRMM
TLE1=1 25063U 97074A   11059.50162778  .00007782  00000-0  10822-3 0  5913
TLE2=2 25063  34.9631 188.8849 0001229 315.8300  44.2362 15.56164377756930
